H1 CPF 01  gfz 2022 09 27 12  7702 tandemx   
H2 1003001  6202 36605    2022 09 27 12 59 42 2022 10 02 00 00 42   120 1 1  0 0 0
H9
10 0 59853  15822.000000  0    6282344.808   2805221.770   -374223.626
10 0 59853  15942.000000  0    6254648.745   2598649.316  -1272159.648
10 0 59853  16062.000000  0    6113772.177   2348188.291  -2147733.345
10 0 59853  16182.000000  0    5861550.795   2060209.807  -2985583.266
10 0 59853  16302.000000  0    5501886.635   1741686.484  -3771042.097
10 0 59853  16422.000000  0    5040678.378   1400030.024  -4490395.264
10 0 59853  16542.000000  0    4485711.996   1042923.191  -5131117.997
10 0 59853  16662.000000  0    3846517.798    678152.023  -5682085.918
10 0 59853  16782.000000  0    3134197.794    313440.731  -6133759.046
10 0 59853  16902.000000  0    2361225.529    -43707.013  -6478336.247
10 0 59853  17022.000000  0    1541224.574   -386157.643  -6709877.957
10 0 59853  17142.000000  0     688729.823   -707285.663  -6824399.152
10 0 59853  17262.000000  0    -181067.815  -1001097.859  -6819930.653
10 0 59853  17382.000000  0   -1052585.890  -1262341.361  -6696547.855
10 0 59853  17502.000000  0   -1910122.542  -1486595.100  -6456370.447
10 0 59853  17622.000000  0   -2738133.412  -1670343.396  -6103529.618
10 0 59853  17742.000000  0   -3521506.847  -1811030.163  -5644104.060
10 0 59853  17862.000000  0   -4245837.270  -1907094.405  -5086027.505
10 0 59853  17982.000000  0   -4897692.571  -1957985.193  -4438963.207
10 0 59853  18102.000000  0   -5464868.028  -1964155.564  -3714147.619
10 0 59853  18222.000000  0   -5936623.566  -1927035.714  -2924204.756
10 0 59853  18342.000000  0   -6303897.861  -1848985.104  -2082931.978
10 0 59853  18462.000000  0   -6559493.825  -1733224.173  -1205061.445
10 0 59853  18582.000000  0   -6698230.589  -1583747.229   -306000.555
10 0 59853  18702.000000  0   -6717057.489  -1405218.042    598443.514
10 0 59853  18822.000000  0   -6615125.987  -1202850.448   1492349.614
10 0 59853  18942.000000  0   -6393816.866   -982277.519   2359972.028
10 0 59853  19062.000000  0   -6056722.391   -749412.622   3186026.794
10 0 59853  19182.000000  0   -5609584.024   -510305.346   3955968.982
10 0 59853  19302.000000  0   -5060185.795   -270996.484   4656254.609
10 0 59853  19422.000000  0   -4418208.236    -37376.435   5274579.748
10 0 59853  19542.000000  0   -3695048.899    184950.877   5800095.096
10 0 59853  19662.000000  0   -2903610.808    390794.722   6223593.556
10 0 59853  19782.000000  0   -2058064.100    575491.849   6537665.957
10 0 59853  19902.000000  0   -1173586.869    735006.412   6736825.233
10 0 59853  20022.000000  0    -266089.303    866014.615   6817595.934
10 0 59853  20142.000000  0     648072.619    965971.570   6778570.236
10 0 59853  20262.000000  0    1552390.803   1033160.046   6620430.834
10 0 59853  20382.000000  0    2430502.145   1066720.346   6345939.805
10 0 59853  20502.000000  0    3266484.190   1066660.271   5959893.906
10 0 59853  20622.000000  0    4045146.234   1033845.357   5469045.775
10 0 59853  20742.000000  0    4752308.244    969969.676   4881990.940
10 0 59853  20862.000000  0    5375065.217    877507.267   4209024.941
10 0 59853  20982.000000  0    5902032.860    759645.682   3461967.271
10 0 59853  21102.000000  0    6323565.757    620202.927   2653954.302
10 0 59853  21222.000000  0    6631942.393    463528.493   1799207.309
10 0 59853  21342.000000  0    6821516.731    294391.827    912778.940
10 0 59853  21462.000000  0    6888827.425    117860.701     10281.070
10 0 59853  21582.000000  0    6832664.694    -60827.894   -892398.579
10 0 59853  21702.000000  0    6654090.568   -236400.702  -1779385.475
10 0 59853  21822.000000  0    6356413.304   -403681.318  -2635105.575
10 0 59853  21942.000000  0    5945117.102   -557720.671  -3444564.265
10 0 59853  22062.000000  0    5427749.789   -693921.071  -4193611.987
10 0 59853  22182.000000  0    4813771.116   -808150.384  -4869190.614
10 0 59853  22302.000000  0    4114367.651   -896843.705  -5459555.640
10 0 59853  22422.000000  0    3342239.099   -957091.734  -5954472.619
10 0 59853  22542.000000  0    2511359.769   -986713.739  -6345384.476
10 0 59853  22662.000000  0    1636721.592   -984312.215  -6625547.805
10 0 59853  22782.000000  0     734063.931   -949310.297  -6790138.042
10 0 59853  22902.000000  0    -180406.279   -881971.399  -6836324.220
10 0 59853  23022.000000  0   -1090299.642   -783399.624  -6763311.670
10 0 59853  23142.000000  0   -1979330.944   -655522.134  -6572354.719
10 0 59853  23262.000000  0   -2831604.356   -501052.743  -6266736.624
10 0 59853  23382.000000  0   -3631890.705   -323438.192  -5851718.660
10 0 59853  23502.000000  0   -4365897.005   -126787.163  -5334460.651
10 0 59853  23622.000000  0   -5020523.425     84216.901  -4723908.093
10 0 59853  23742.000000  0   -5584101.696    304417.161  -4030649.635
10 0 59853  23862.000000  0   -6046613.061    528298.726  -3266744.316
10 0 59853  23982.000000  0   -6399878.401    750114.833  -2445519.295
10 0 59853  24102.000000  0   -6637715.779    964021.691  -1581341.135
10 0 59853  24222.000000  0   -6756062.109   1164218.272   -689365.110
10 0 59853  24342.000000  0   -6753054.170   1345087.852    214736.224
10 0 59853  24462.000000  0   -6629063.235   1501337.182   1115055.199
10 0 59853  24582.000000  0   -6386687.139   1628130.906   1995736.496
10 0 59853  24702.000000  0   -6030697.367   1721217.045   2841265.760
10 0 59853  24822.000000  0   -5567941.647   1777039.713   3636751.904
10 0 59853  24942.000000  0   -5007204.476   1792836.150   4368195.749
10 0 59853  25062.000000  0   -4359030.979   1766716.219   5022738.987
10 0 59853  25182.000000  0   -3635519.461   1697722.670   5588889.664
10 0 59853  25302.000000  0   -2850087.739   1585870.929   6056721.806
10 0 59853  25422.000000  0   -2017216.392   1432168.017   6418046.246
10 0 59853  25542.000000  0   -1152174.835   1238609.126   6666547.691
10 0 59853  25662.000000  0    -270738.098   1008152.831   6797887.749
10 0 59853  25782.000000  0     611100.811    744675.778   6809775.234
10 0 59853  25902.000000  0    1477420.030    452907.156   6702003.457
10 0 59853  26022.000000  0    2312655.012    138344.371   6476453.633
10 0 59853  26142.000000  0    3101877.544   -192849.496   6137065.214
10 0 59853  26262.000000  0    3831064.520   -533964.939   5689771.807
10 0 59853  26382.000000  0    4487350.498   -877879.723   5142402.625
10 0 59853  26502.000000  0    5059260.176  -1217205.313   4504551.767
10 0 59853  26622.000000  0    5536916.945  -1544442.483   3787415.084
10 0 59853  26742.000000  0    5912222.637  -1852143.715   3003596.671
10 0 59853  26862.000000  0    6179004.178  -2133078.751   2166887.425
10 0 59853  26982.000000  0    6333122.675  -2380398.943   1292019.782
10 0 59853  27102.000000  0    6372543.128  -2587796.356    394403.013
10 0 59853  27222.000000  0    6297361.476  -2749653.911   -510156.310
10 0 59853  27342.000000  0    6109788.914  -2861181.995  -1405741.763
10 0 59853  27462.000000  0    5814091.966  -2918538.480  -2276616.440
10 0 59853  27582.000000  0    5416491.920  -2918928.494  -3107505.924
10 0 59853  27702.000000  0    4925027.141  -2860681.984  -3883870.096
10 0 59853  27822.000000  0    4349382.074  -2743308.401  -4592158.005
10 0 59853  27942.000000  0    3700686.697  -2567526.715  -5220042.036
10 0 59853  28062.000000  0    2991291.747  -2335269.910  -5756624.935
10 0 59853  28182.000000  0    2234528.480  -2049665.651  -6192618.075
10 0 59853  28302.000000  0    1444456.354  -1714993.947  -6520492.705
10 0 59853  28422.000000  0     635600.786  -1336620.836  -6734599.531
10 0 59853  28542.000000  0    -177311.052   -920911.750  -6831255.359
10 0 59853  28662.000000  0    -979612.949   -475125.555  -6808798.934
10 0 59853  28782.000000  0   -1756957.858     -7290.699  -6667616.419
10 0 59853  28902.000000  0   -2495568.672    473935.966  -6410134.668
10 0 59853  29022.000000  0   -3182476.551    959424.620  -6040783.769
10 0 59853  29142.000000  0   -3805745.336   1439740.920  -5565929.896
10 0 59853  29262.000000  0   -4354680.349   1905324.782  -4993777.094
10 0 59853  29382.000000  0   -4820016.587   2346678.216  -4334237.340
10 0 59853  29502.000000  0   -5194081.999   2754557.651  -3598768.705
10 0 59853  29622.000000  0   -5470932.517   3120165.843  -2800185.404
10 0 59853  29742.000000  0   -5646457.118   3435341.200  -1952440.955
10 0 59853  29862.000000  0   -5718448.109   3692739.618  -1070386.264
10 0 59853  29982.000000  0   -5686634.074   3886002.968   -169507.099
10 0 59853  30102.000000  0   -5552674.766   4009910.854    734353.165
10 0 59853  30222.000000  0   -5320116.227   4060510.492   1625281.579
10 0 59853  30342.000000  0   -4994306.096   4035220.529   2487585.035
10 0 59853  30462.000000  0   -4582273.539   3932907.516   3306074.528
10 0 59853  30582.000000  0   -4092576.523   3753933.064   4066340.380
10 0 59853  30702.000000  0   -3535119.620   3500168.802   4755010.358
10 0 59853  30822.000000  0   -2920948.444   3174981.391   5359986.534
10 0 59853  30942.000000  0   -2262024.306   2783186.873   5870656.618
10 0 59853  31062.000000  0   -1570985.893   2330976.089   6278076.467
10 0 59853  31182.000000  0    -860901.939   1825812.576   6575120.698
10 0 59853  31302.000000  0    -145022.841   1276306.220   6756599.485
10 0 59853  31422.000000  0     563466.239    692064.605   6819344.450
10 0 59853  31542.000000  0    1251687.750     83524.652   6762260.012
10 0 59853  31662.000000  0    1907304.609   -538233.014   6586341.571
10 0 59853  31782.000000  0    2518740.772  -1161685.423   6294659.875
10 0 59853  31902.000000  0    3075386.309  -1775079.882   5892311.456
10 0 59853  32022.000000  0    3567784.569  -2366655.866   5386335.168
10 0 59853  32142.000000  0    3987796.704  -2924871.317   4785594.530
10 0 59853  32262.000000  0    4328741.148  -3438630.159   4100628.287
99
